GLOBALSTAR M067 [+]     
1 32263U 07048A   23286.54978435 -.00000101  00000+0 -26504-4 0  9995
2 32263  51.9752  28.4926 0001505 111.8712 261.3811 12.40632442733441
GLOBALSTAR M070 [+]     
1 32264U 07048B   23286.52877125 -.00000064  00000+0  22175-3 0  9994
2 32264  51.9742 194.8451 0000586  99.1001  72.3580 12.62279862736295
GLOBALSTAR M066 [+]     
1 32265U 07048C   23286.60988528 -.00000084  00000+0  11065-3 0  9992
2 32265  51.9684  56.6612 0000979  75.4818 297.4307 12.62266016738571
GLOBALSTAR M068 [-]     
1 32266U 07048D   23286.53380507 -.00000057  00000+0  26091-3 0  9993
2 32266  51.9912   9.7373 0000737 186.9920 276.9250 12.62767923740152
GLOBALSTAR M079 [+]     
1 37188U 10054A   23286.55439889 -.00000081  00000+0  12787-3 0  9996
2 37188  52.0032 204.7396 0000870  60.5833 109.8878 12.62268777599082
GLOBALSTAR M074 [+]     
1 37189U 10054B   23286.50187132 -.00000085  00000+0  10592-3 0  9999
2 37189  52.0007 204.3165 0000715  71.5772 100.4168 12.62270601599681
GLOBALSTAR M076 [+]     
1 37190U 10054C   23286.52798310 -.00000088  00000+0  90735-4 0  9990
2 37190  52.0021 204.3525 0001249  80.0052  90.6237 12.62262052599406
GLOBALSTAR M077 [+]     
1 37191U 10054D   23286.43588910 -.00000061  00000+0  24093-3 0  9998
2 37191  52.0057 161.3148 0000832  83.6748  87.0451 12.62267463599765
